{
    "links": {
        "self": "http://www.neowsapp.com/rest/v1/neo/54073349?api_key=iIulBulltgU6a56xZRHN4H3l9WmuAYTsLGpBGhQ2"
    },
    "id": "54073349",
    "neo_reference_id": "54073349",
    "name": "(2020 UJ)",
    "designation": "2020 UJ",
    "nasa_jpl_url": "http://ssd.jpl.nasa.gov/sbdb.cgi?sstr=54073349",
    "absolute_magnitude_h": 24.143,
    "estimated_diameter": {
        "kilometers": {
            "estimated_diameter_min": 0.0394416411,
            "estimated_diameter_max": 0.0881941906
        },
        "meters": {
            "estimated_diameter_min": 39.441641073,
            "estimated_diameter_max": 88.1941905833
        },
        "miles": {
            "estimated_diameter_min": 0.024507892,
            "estimated_diameter_max": 0.0548013124
        },
        "feet": {
            "estimated_diameter_min": 129.4017136979,
            "estimated_diameter_max": 289.3510282334
        }
    },
    "is_potentially_hazardous_asteroid": false,
    "close_approach_data": [
        {
            "close_approach_date": "2020-10-30",
            "close_approach_date_full": "2020-Oct-30 04:49",
            "epoch_date_close_approach": 1604033340000,
            "relative_velocity": {
                "kilometers_per_second": "12.8998631083",
                "kilometers_per_hour": "46439.507189885",
                "miles_per_hour": "28855.7037869594"
            },
            "miss_distance": {
                "astronomical": "0.0624308453",
                "lunar": "24.2855988217",
                "kilometers": "9339521.479179511",
                "miles": "5803309.5441228118"
            },
            "orbiting_body": "Earth"
        },
        {
            "close_approach_date": "2125-09-25",
            "close_approach_date_full": "2125-Sep-25 06:43",
            "epoch_date_close_approach": 4914456180000,
            "relative_velocity": {
                "kilometers_per_second": "29.2450669058",
                "kilometers_per_hour": "105282.2408607439",
                "miles_per_hour": "65418.2901614995"
            },
            "miss_distance": {
                "astronomical": "0.493502145",
                "lunar": "191.972334405",
                "kilometers": "73826869.73243115",
                "miles": "45873889.65120387"
            },
            "orbiting_body": "Earth"
        }
    ],
    "orbital_data": {
        "orbit_id": "4",
        "orbit_determination_date": "2020-10-22 09:09:22",
        "first_observation_date": "2020-10-10",
        "last_observation_date": "2020-10-22",
        "data_arc_in_days": 12,
        "observations_used": 24,
        "orbit_uncertainty": "8",
        "minimum_orbit_intersection": ".00158657",
        "jupiter_tisserand_invariant": "3.409",
        "epoch_osculation": "2459136.5",
        "eccentricity": ".6299275514856501",
        "semi_major_axis": "2.157589791603073",
        "inclination": "4.110768963173631",
        "ascending_node_longitude": "30.84827805998978",
        "orbital_period": "1157.581946120307",
        "perihelion_distance": ".7984645370681154",
        "perihelion_argument": "59.42167152015898",
        "aphelion_distance": "3.516715046138031",
        "perihelion_time": "2459189.386544125274",
        "mean_anomaly": "343.55264959953",
        "mean_motion": ".3109931017899492",
        "equinox": "J2000",
        "orbit_class": {
            "orbit_class_type": "APO",
            "orbit_class_description": "Near-Earth asteroid orbits which cross the Earth’s orbit similar to that of 1862 Apollo",
            "orbit_class_range": "a (semi-major axis) > 1.0 AU; q (perihelion) < 1.017 AU"
        }
    },
    "is_sentry_object": false
}